TDRS 3                  
1 19548U 88091B   23332.95016829 -.00000298  00000+0  00000+0 0  9994
2 19548  13.3190 347.3463 0039424 331.7068  41.7530  1.00277081116033
HST                     
1 20580U 90037B   23332.92368883  .00008510  00000+0  43346-3 0  9990
2 20580  28.4687 250.5783 0002667   6.5721  61.1506 15.15020902646453
TDRS 5                  
1 21639U 91054B   23333.28474286  .00000086  00000+0  00000+0 0  9997
2 21639  14.1885   0.5992 0023679 353.8057   8.7327  1.00273586118372
TDRS 6                  
1 22314U 93003B   23332.95077745 -.00000295  00000+0  00000+0 0  9999
2 22314  14.1571   3.8902 0009045 165.7294 194.4414  1.00273548113043
TDRS 7                  
1 23613U 95035B   23333.54749131 -.00000201  00000+0  00000+0 0  9997
2 23613  13.7665 354.6500 0022555  65.8010 289.6254  1.00274767103821
ISS (ZARYA)             
1 25544U 98067A   23333.58785172  .00023126  00000+0  41302-3 0  9993
2 25544  51.6431 229.3060 0000955 349.0691  81.3873 15.49930125427445
LANDSAT 7               
1 25682U 99020A   23333.49989830  .00000964  00000+0  20832-3 0  9993
2 25682  97.9110   4.5669 0001074  98.1689  38.0923 14.60351157309904
TERRA                   
1 25994U 99068A   23333.50472407  .00001157  00000+0  25344-3 0  9998
2 25994  98.0765  37.6574 0000553 263.0871 154.0054 14.59461546273891
TDRS 8                  
1 26388U 00034A   23332.85490534  .00000098  00000+0  00000+0 0  9990
2 26388  11.2146  38.8017 0004698 215.0296 313.7280  1.00276140 85843
TIMED                   
1 26998U 01055B   23333.07580067  .00002889  00000+0  30016-3 0  9991
2 26998  74.0716 303.2896 0001583 308.2777  51.8262 14.90424294191995
TDRS 9                  
1 27389U 02011A   23333.17400324 -.00000005  00000+0  00000+0 0  9992
2 27389  10.1685  55.6856 0004800 133.7204 205.6990  0.98979730 81067
AQUA                    
1 27424U 02022A   23333.50273233  .00002268  00000+0  49714-3 0  9999
2 27424  98.3070 277.5318 0001792  59.1037  32.9451 14.58611359147453
TDRS 10                 
1 27566U 02055A   23333.42728615  .00000091  00000+0  00000+0 0  9995
2 27566   9.1846  46.7582 0002553 297.4449  66.6614  1.00266556 76892
SORCE                   
1 27651U 03004A   23333.51359538  .00005577  00000+0  53425-3 0  9996
2 27651  39.9923 131.3719 0020711 255.9491 103.8997 14.93303313132248
AURA                    
1 28376U 04026A   23333.46777401  .00002221  00000+0  49324-3 0  9999
2 28376  98.2293 275.0695 0001427  61.8593 298.2750 14.58012445 30461
SWIFT                   
1 28485U 04047A   23332.84907559  .00012030  00000+0  61637-3 0  9993
2 28485  20.5545 176.5216 0008945 202.5806 157.4236 15.13984041 43570
THEMIS A                
1 30580U 07004A   23332.69531582 -.00000293  00000+0  68938-1 0  9998
2 30580  10.9343 282.5898 8316255 282.2400 286.0752  0.87833928 33080
THEMIS D                
1 30797U 07004D   23332.73221703 -.00000334  00000+0  00000+0 0  9994
2 30797   7.3393 273.6032 8288628 294.6811 284.6926  0.87834797 32880
THEMIS E                
1 30798U 07004E   23332.75301221 -.00000375  00000+0  00000+0 0  9996
2 30798   8.5324 292.8372 8291103 277.0322 308.3411  0.87832622 57720
AIM                     
1 31304U 07015A   23332.83355496  .00046378  00000+0  11683-2 0  9998
2 31304  97.8863 284.4899 0003215  27.9323 332.2094 15.39753306911922
FGRST (GLAST)           
1 33053U 08029A   23332.81362830  .00004091  00000+0  19565-3 0  9999
2 33053  25.5808 150.4531 0011021 204.2604 155.7413 15.15222862854205
WISE                    
1 36119U 09071A   23332.63790491  .00030732  00000+0  56951-3 0  9992
2 36119  97.1755   3.8570 0002311 130.7199 229.4253 15.48933826776912
TDRS 11                 
1 39070U 13004A   23333.42658997  .00000087  00000+0  00000+0 0  9994
2 39070   2.6944   4.2369 0002717  52.8182 350.2470  1.00275940 39655
TDRS 12                 
1 39504U 14004A   23332.80852222 -.00000263  00000+0  00000+0 0  9992
2 39504   3.5681 358.4986 0004411 229.0505  90.0306  1.00268052 34933
GPM-CORE                
1 39574U 14009C   23332.80412462  .00012089  00000+0  26513-3 0  9991
2 39574  64.9879 186.9269 0012225 280.4662  79.5101 15.44336395553957
MMS 1                   
1 40482U 15011A   23333.08334491 -.00000776  00000+0  00000+0 0  9991
2 40482  35.4667  32.9872 9156218 127.0145  94.6173  0.28424504 14806
MMS 2                   
1 40483U 15011B   23333.16667824 -.00000778  00000+0  00000+0 0  9992
2 40483  35.4761  32.9930 9155472 127.0145 103.1281  0.28423535 14784
MMS 3                   
1 40484U 15011C   23333.16667824 -.00000778  00000+0  00000+0 0  9993
2 40484  35.4695  32.9824 9154499 127.0217 103.1291  0.28423430 14786
MMS 4                   
1 40485U 15011D   23333.16667824 -.00000779  00000+0  00000+0 0  9995
2 40485  35.4757  32.9772 9155340 127.0138 103.1816  0.28425262 14784
TDRS 13                 
1 42915U 17047A   23332.81426571 -.00000093  00000+0  00000+0 0  9998
2 42915   3.8228 340.6562 0012224 125.3571 243.0568  1.00271778 23014
JPSS-1                  
1 43013U 17073A   23333.47894356  .00000236  00000+0  13276-3 0  9991
2 43013  98.7288 269.3936 0001421  68.1022 292.0305 14.19544144312420
